0 MOZHAYETS
1 27560U 02054B   13282.05371892  .00000068  00000-0  25430-4 0  9826
2 27560 098.0187 070.1841 0042448 344.7607 015.2313 14.56091726575822
0 MOZHAYETS
1 27560U 02054B   13282.46602316  .00000294  00000-0  76160-4 0  9837
2 27560 098.0190 070.5809 0042214 343.2254 016.7625 14.56093340575889
0 MOZHAYETS
1 27560U 02054B   13282.87832578  .00000366  00000-0  92262-4 0  9849
2 27560 098.0190 070.9770 0042238 341.9389 018.0306 14.56093998575947
0 MOZHAYETS
1 27560U 02054B   13283.01576056  .00000436  00000-0  10789-3 0  9854
2 27560 098.0192 071.1096 0042197 341.5306 018.4375 14.56094482575963
0 MOZHAYETS
1 27560U 02054B   13283.35934700  .00000583  00000-0  14092-3 0  9860
2 27560 098.0192 071.4404 0042220 340.4077 019.5542 14.56095693576019
0 MOZHAYETS
1 27560U 02054B   13283.63421508  .00000713  00000-0  17011-3 0  9867
2 27560 098.0191 071.7045 0042241 339.5121 020.4379 14.56096522576059
0 MOZHAYETS
1 27560U 02054B   13283.84036691  .00000757  00000-0  17997-3 0  9877
2 27560 098.0193 071.9029 0042243 338.9100 021.0365 14.56097100576085
0 MOZHAYETS
1 27560U 02054B   13284.18395262  .00000890  00000-0  20963-3 0  9883
2 27560 098.0195 072.2335 0042122 337.9409 021.9976 14.56098215576139
0 MOZHAYETS
1 27560U 02054B   13284.45882145  .00000842  00000-0  19892-3 0  9891
2 27560 098.0195 072.4990 0042023 337.0822 022.8491 14.56098335576177
0 MOZHAYETS
1 27560U 02054B   13285.48958057  .00000358  00000-0  90360-4 0  9927
2 27560 098.0198 073.4901 0041880 333.7503 026.1559 14.56097398576329
0 MOZHAYETS
1 27560U 02054B   13285.83316700  .00000346  00000-0  87664-4 0  9930
2 27560 098.0198 073.8203 0041854 332.6765 027.2232 14.56097631576372
0 MOZHAYETS
1 27560U 02054B   13285.97060144  .00000399  00000-0  99557-4 0  9946
2 27560 098.0204 073.9532 0041887 332.2638 027.6333 14.56097972576393
0 MOZHAYETS
1 27560U 02054B   13286.45162178  .00000395  00000-0  98747-4 0  9957
2 27560 098.0193 074.4168 0041931 330.7358 029.1523 14.56098715576465
0 MOZHAYETS
1 27560U 02054B   13286.72649002  .00000383  00000-0  95999-4 0  9967
2 27560 098.0192 074.6807 0041956 329.9134 029.9659 14.56098952576501
0 MOZHAYETS
1 27560U 02054B   13287.20751028  .00000560  00000-0  13565-3 0  9979
2 27560 098.0198 075.1443 0041838 328.4826 031.3881 14.56099980576573
0 MOZHAYETS
1 27560U 02054B   13287.48237825  .00000612  00000-0  14739-3 0  9986
2 27560 098.0196 075.4086 0041848 327.5951 032.2685 14.56100660576612
0 MOZHAYETS
1 27560U 02054B   13287.89468069  .00000624  00000-0  14998-3 0  9998
2 27560 098.0194 075.8046 0041849 326.3007 033.5533 14.56101231576677
0 MOZHAYETS
1 27560U 02054B   13287.96339775  .00000455  00000-0  11213-3 0    09
2 27560 098.0198 075.8713 0041751 326.0459 033.8028 14.56100282576680
0 MOZHAYETS
1 27560U 02054B   13288.44441812  .00000641  00000-0  15395-3 0    12
2 27560 098.0198 076.3342 0041809 324.5530 035.2936 14.56101941576756
0 MOZHAYETS
1 27560U 02054B   13288.65056836  .00000703  00000-0  16789-3 0    21
2 27560 098.0194 076.5326 0041812 323.9109 035.9272 14.56102489576786
0 MOZHAYETS
1 27560U 02054B   13289.06287045  .00000568  00000-0  13744-3 0    33
2 27560 098.0194 076.9289 0041789 322.5652 037.2604 14.56102225576848
0 MOZHAYETS
1 27560U 02054B   13289.47517332  .00000482  00000-0  11833-3 0    46
2 27560 098.0193 077.3249 0041691 321.0955 038.7268 14.56102551576901
0 MOZHAYETS
1 27560U 02054B   13289.88747507  .00000491  00000-0  12040-3 0    52
2 27560 098.0191 077.7213 0041700 319.8394 039.9724 14.56103033576969
0 MOZHAYETS
1 27560U 02054B   13290.02490963  .00000517  00000-0  12614-3 0    68
2 27560 098.0189 077.8535 0041730 319.4343 040.3758 14.56103116576984
0 MOZHAYETS
1 27560U 02054B   13290.36849448  .00000685  00000-0  16372-3 0    73
2 27560 098.0187 078.1837 0041643 318.1775 041.6312 14.56104571577032
0 MOZHAYETS
1 27560U 02054B   13290.50592706  .00000699  00000-0  16681-3 0    80
2 27560 098.0185 078.3157 0041684 317.7854 042.0130 14.56104778577059
0 MOZHAYETS
1 27560U 02054B   13291.05566269  .00000667  00000-0  15972-3 0    94
2 27560 098.0180 078.8431 0041605 316.0137 043.7746 14.56105371577133
0 MOZHAYETS
1 27560U 02054B   13291.39924682  .00000741  00000-0  17631-3 0   107
2 27560 098.0183 079.1736 0041574 314.9909 044.7924 14.56106436577184
0 MOZHAYETS
1 27560U 02054B   13291.67411366  .00000835  00000-0  19734-3 0   119
2 27560 098.0184 079.4373 0041486 313.9428 045.8349 14.56107344577229
0 MOZHAYETS
1 27560U 02054B   13292.01769804  .00000916  00000-0  21544-3 0   124
2 27560 098.0182 079.7676 0041677 312.9556 046.8154 14.56108218577270
0 MOZHAYETS
1 27560U 02054B   13292.42999882  .00000826  00000-0  19537-3 0   130
2 27560 098.0185 080.1641 0041671 311.6834 048.0795 14.56108590577335
0 MOZHAYETS
1 27560U 02054B   13292.84229993  .00000763  00000-0  18129-3 0   142
2 27560 098.0186 080.5606 0041601 310.3787 049.3785 14.56108933577397
0 MOZHAYETS
1 27560U 02054B   13293.04845130  .00000686  00000-0  16397-3 0   152
2 27560 098.0185 080.7586 0041743 309.8203 049.9326 14.56108523577424
0 MOZHAYETS
1 27560U 02054B   13293.46075171  .00000526  00000-0  12802-3 0   169
2 27560 098.0186 081.1564 0041710 308.4861 051.2588 14.56108640577487
0 MOZHAYETS
1 27560U 02054B   13293.73561917  .00000459  00000-0  11303-3 0   178
2 27560 098.0186 081.4206 0041700 307.5983 052.1435 14.56108718577529
0 MOZHAYETS
1 27560U 02054B   13294.14791994  .00000386  00000-0  96841-4 0   185
2 27560 098.0183 081.8168 0041492 306.2034 053.5313 14.56108648577586
0 MOZHAYETS
1 27560U 02054B   13294.49150374  .00000506  00000-0  12374-3 0   197
2 27560 098.0178 082.1472 0041452 305.1945 054.5380 14.56109797577634
0 MOZHAYETS
1 27560U 02054B   13294.83508745  .00000531  00000-0  12916-3 0   206
2 27560 098.0178 082.4774 0041462 304.1342 055.5933 14.56110324577681
0 MOZHAYETS
1 27560U 02054B   13295.04123795  .00000534  00000-0  12984-3 0   217
2 27560 098.0184 082.6766 0041533 303.6115 056.1120 14.56110378577710
0 MOZHAYETS
1 27560U 02054B   13295.52225442  .00000738  00000-0  17562-3 0   226
2 27560 098.0178 083.1404 0041541 302.0637 057.6552 14.56112146577786
0 MOZHAYETS
1 27560U 02054B   13295.65968735  .00000746  00000-0  17734-3 0   230
2 27560 098.0179 083.2725 0041544 301.6275 058.0873 14.56112390577805
0 MOZHAYETS
1 27560U 02054B   13296.00327056  .00000837  00000-0  19793-3 0   244
2 27560 098.0183 083.6035 0041542 300.6448 059.0651 14.56113194577850
